0 COSMOS 1275 DEB
1 12708U 81053BC  13282.32261012  .00002452  00000-0  10360-2 0  7687
2 12708 082.8766 287.0340 0037586 092.8438 267.7048 14.24870266648332
0 COSMOS 1275 DEB
1 12708U 81053BC  13283.44618202  .00002942  00000-0  12443-2 0  7697
2 12708 082.8772 286.1216 0037569 089.4172 271.1317 14.24873141648499
0 COSMOS 1275 DEB
1 12708U 81053BC  13285.76353583  .00002924  00000-0  12365-2 0  7718
2 12708 082.8767 284.2391 0037597 082.6253 277.9201 14.24884356648825
0 COSMOS 1275 DEB
1 12708U 81053BC  13287.09775987  .00003394  00000-0  14358-2 0  7729
2 12708 082.8764 283.1551 0037577 078.7111 281.8292 14.24890601649011
0 COSMOS 1275 DEB
1 12708U 81053BC  13288.15108958  .00004912  00000-0  20808-2 0  7730
2 12708 082.8763 282.2991 0037588 075.5721 284.9630 14.24901282649166
0 COSMOS 1275 DEB
1 12708U 81053BC  13289.48529559  .00004524  00000-0  19158-2 0  7747
2 12708 082.8760 281.2155 0037454 071.7383 288.7871 14.24910637649352
0 COSMOS 1275 DEB
1 12708U 81053BC  13290.53861162  .00004271  00000-0  18079-2 0  7755
2 12708 082.8763 280.3592 0037547 068.5746 291.9436 14.24915940649502
0 COSMOS 1275 DEB
1 12708U 81053BC  13290.53864291  .00001953  00000-0  83051-3 0  7758
2 12708 082.8786 280.3604 0037891 067.4573 293.1095 14.24902731649508
0 COSMOS 1275 DEB
1 12708U 81053BC  13292.15368345  .00004090  00000-0  17305-2 0  7761
2 12708 082.8768 279.0463 0037637 063.7638 296.7407 14.24929002649736
0 COSMOS 1275 DEB
1 12708U 81053BC  13293.48786013  .00005366  00000-0  22721-2 0  7770
2 12708 082.8775 277.9626 0037441 059.9667 300.5223 14.24941770649921
0 COSMOS 1275 DEB
1 12708U 81053BC  13294.68158890  .00005403  00000-0  22874-2 0  7781
2 12708 082.8776 276.9925 0037440 056.4010 304.0737 14.24949489650090
0 COSMOS 1275 DEB
1 12708U 81053BC  13296.01574873  .00004696  00000-0  19866-2 0  7794
2 12708 082.8778 275.9085 0037508 052.5724 307.8863 14.24959434650285
